[
    {
        "Altitude(m)": 611967.1597625663,
        "Argument of Periapsis(deg)": 0.0,
        "Eccentricity": 0.0,
        "Inclination(deg)": 60.0,
        "Latitude(deg)": 59.14010346830866,
        "Longitude(deg)": -23.908082792180693,
        "Mean Anomaly(deg)": -261.8182,
        "RAAN(deg)": 330.0,
        "Satellite Name": "Test1 1458",
        "Satellite Number": 1458,
        "Semi-Major Axis(m)": 6980739.136638005,
        "Time(s)": 0
    },
    {
        "Altitude(m)": 611934.3601204082,
        "Argument of Periapsis(deg)": 0.00010418945913296404,
        "Eccentricity": 0.0,
        "Inclination(deg)": 60.0,
        "Latitude(deg)": 58.98646731321977,
        "Longitude(deg)": -22.78483807064465,
        "Mean Anomaly(deg)": -261.1980938545382,
        "RAAN(deg)": 329.9995799508602,
        "Satellite Name": "Test1 1458",
        "Satellite Number": 1458,
        "Semi-Major Axis(m)": 6980739.136638005,
        "Time(s)": 10
    }
]